ONEWEB-0159             
1 48062U 21025W   25221.47222474 -.00000273  00000+0 -78314-3 0  9993
2 48062  87.8977  22.1217 0001563  97.7938 262.3368 13.13470606212681
ONEWEB-0164             
1 48063U 21025X   25221.45360997  .00000112  00000+0  27287-3 0  9998
2 48063  87.8977  22.1355 0001829  92.7651 267.3688 13.13470353212664
ONEWEB-0167             
1 48064U 21025Y   25221.48154710 -.00000222  00000+0 -64317-3 0  9995
2 48064  87.8985  22.1627 0001395  68.1660 291.9617 13.13470799212659
ONEWEB-0166             
1 48065U 21025Z   25221.42822250  .00000285  00000+0  74654-3 0  9993
2 48065  87.8973  22.1253 0001714  99.1541 260.9782 13.13471100212723
ONEWEB-0151             
1 48066U 21025AA  25221.50609179  .00000245  00000+0  63496-3 0  9994
2 48066  87.8978  22.1336 0001734  88.5398 271.5930 13.13470284212674
ONEWEB-0170             
1 48067U 21025AB  25221.20984596  .00000359  00000+0  94754-3 0  9998
2 48067  87.8978  22.1985 0002090  81.9220 278.2146 13.13470395212599
ONEWEB-0168             
1 48068U 21025AC  25221.42313578  .00000218  00000+0  56335-3 0  9996
2 48068  87.8979  22.1373 0001587  94.7739 265.3572 13.13474660212633
ONEWEB-0173             
1 48069U 21025AD  25221.18614343 -.00000050  00000+0 -17251-3 0  9994
2 48069  87.8977  22.1927 0001361  86.6020 273.5265 13.13470553212840
